{
    "links": {
        "self": "http://www.neowsapp.com/rest/v1/neo/3787634?api_key=iIulBulltgU6a56xZRHN4H3l9WmuAYTsLGpBGhQ2"
    },
    "id": "3787634",
    "neo_reference_id": "3787634",
    "name": "(2017 UD3)",
    "designation": "2017 UD3",
    "nasa_jpl_url": "http://ssd.jpl.nasa.gov/sbdb.cgi?sstr=3787634",
    "absolute_magnitude_h": 23.7,
    "estimated_diameter": {
        "kilometers": {
            "estimated_diameter_min": 0.0483676488,
            "estimated_diameter_max": 0.1081533507
        },
        "meters": {
            "estimated_diameter_min": 48.3676488219,
            "estimated_diameter_max": 108.1533506775
        },
        "miles": {
            "estimated_diameter_min": 0.0300542543,
            "estimated_diameter_max": 0.0672033557
        },
        "feet": {
            "estimated_diameter_min": 158.6865169607,
            "estimated_diameter_max": 354.8338390368
        }
    },
    "is_potentially_hazardous_asteroid": false,
    "close_approach_data": [
        {
            "close_approach_date": "2017-10-25",
            "close_approach_date_full": "2017-Oct-25 15:34",
            "epoch_date_close_approach": 1508945640000,
            "relative_velocity": {
                "kilometers_per_second": "25.6312539419",
                "kilometers_per_hour": "92272.5141908836",
                "miles_per_hour": "57334.5519426632"
            },
            "miss_distance": {
                "astronomical": "0.098958891",
                "lunar": "38.495008599",
                "kilometers": "14804039.31116217",
                "miles": "9198803.473771146"
            },
            "orbiting_body": "Earth"
        }
    ],
    "orbital_data": {
        "orbit_id": "4",
        "orbit_determination_date": "2020-09-07 08:44:04",
        "first_observation_date": "2017-10-21",
        "last_observation_date": "2017-10-30",
        "data_arc_in_days": 9,
        "observations_used": 55,
        "orbit_uncertainty": "8",
        "minimum_orbit_intersection": ".0871805",
        "jupiter_tisserand_invariant": "2.955",
        "epoch_osculation": "2458049.5",
        "eccentricity": ".6071664895239457",
        "semi_major_axis": "2.395150688002676",
        "inclination": "43.47077831045684",
        "ascending_node_longitude": "208.237833213718",
        "orbital_period": "1353.934608136386",
        "perihelion_distance": ".9408954528872278",
        "perihelion_argument": "230.7164983644981",
        "aphelion_distance": "3.849405923118124",
        "perihelion_time": "2458091.192446385126",
        "mean_anomaly": "348.9143237727671",
        "mean_motion": ".2658917187260023",
        "equinox": "J2000",
        "orbit_class": {
            "orbit_class_type": "APO",
            "orbit_class_description": "Near-Earth asteroid orbits which cross the Earth’s orbit similar to that of 1862 Apollo",
            "orbit_class_range": "a (semi-major axis) > 1.0 AU; q (perihelion) < 1.017 AU"
        }
    },
    "is_sentry_object": false
}